[{"OBJECT_NAME":"STARLINK-3598","OBJECT_ID":"2022-022AX","EPOCH":"2026-03-09T04:47:15.392544","MEAN_MOTION":15.08842429,"ECCENTRICITY":0.00015944,"INCLINATION":53.2201,"RA_OF_ASC_NODE":1.3173,"ARG_OF_PERICENTER":88.0274,"MEAN_ANOMALY":272.0901,"EPHEMERIS_TYPE":0,"CLASSIFICATION_TYPE":"U","NORAD_CAT_ID":51897,"ELEMENT_SET_NO":999,"REV_AT_EPOCH":22317,"BSTAR":5.2171769e-5,"MEAN_MOTION_DOT":5.42e-6,"MEAN_MOTION_DDOT":0},{"OBJECT_NAME":"NOAA 17 DEB","OBJECT_ID":"2002-032DT","EPOCH":"2026-03-08T22:47:54.624192","MEAN_MOTION":15.08678856,"ECCENTRICITY":0.0018728,"INCLINATION":98.77,"RA_OF_ASC_NODE":121.3607,"ARG_OF_PERICENTER":298.7191,"MEAN_ANOMALY":61.2152,"EPHEMERIS_TYPE":0,"CLASSIFICATION_TYPE":"U","NORAD_CAT_ID":49489,"ELEMENT_SET_NO":999,"REV_AT_EPOCH":24229,"BSTAR":0.0068247859,"MEAN_MOTION_DOT":0.00108865,"MEAN_MOTION_DDOT":0}]
